CARTOSAT-2B             
1 36795U 10035A   26068.39034350  .00001295  00000+0  18304-3 0  9993
2 36795  97.8747 119.6773 0012468 150.1325 210.0600 14.78772269845106
KUIPER-00097            
1 65136U 25171E   26068.47211545  .00005673  00000+0  77247-3 0  9998
2 65136  51.9006 161.6726 0000475  76.0557 284.0458 14.79937818 32811
